GUOWANG OBJECT D        
1 69575U 26137D   26185.69024756 -.00000179  00000+0 -26923-4 0  9996
2 69575  49.9953 185.6466 0011148 282.9923  76.9731 13.89828409  2466
GUOWANG OBJECT E        
1 69576U 26137E   26187.19924505 -.00000212  00000+0 -53167-4 0  9993
2 69576  50.0032 179.6541 0011245 290.6651  69.3041 13.89825648  2672
GUOWANG OBJECT F        
1 69577U 26137F   26187.19837834 -.00000207  00000+0 -49492-4 0  9992
2 69577  50.0023 179.6474 0010867 290.3788  69.5942 13.89810038  2674
GUOWANG OBJECT G        
1 69578U 26137G   26187.19747302 -.00000240  00000+0 -76320-4 0  9990
2 69578  49.9951 179.6239 0010850 290.2437  69.7294 13.89794875  2675
GUOWANG OBJECT H        
1 69579U 26137H   26176.48489301  .00000037  00000+0  14270-3 0  9990
2 69579  49.9967 222.2731 0010122 259.8752 100.1006 13.92076941  1185
GUOWANG OBJECT J        
1 69580U 26137J   26178.27848690  .00000022  00000+0  13174-3 0  9997
2 69580  49.9961 215.0979 0011832 257.3150 102.6427 13.91997107  1436
CZ-12 R/B               
1 69581U 26137K   26187.20106225 -.00000046  00000+0  57751-4 0  9999
2 69581  49.9875 176.9324 0077464 178.9373 181.1712 14.11692549  2691
CENTISPACE-1 GROUP 05 O*
1 69582U 26138A   26187.27910035 -.00000322  00000+0 -86095-4 0  9991
2 69582  55.1388 210.6714 0010720 324.0460  35.9792 14.15471536  2725
CENTISPACE-1 GROUP 05 O*
1 69583U 26138B   26187.27664125 -.00000379  00000+0 -11459-3 0  9991
2 69583  55.1385 210.6569 0009678 324.2147  35.8178 14.15652334  2729
CENTISPACE-1 GROUP 05 O*
1 69584U 26138C   26187.27549036 -.00000384  00000+0 -11685-3 0  9992
2 69584  55.1391 210.6593 0009607 325.8956  34.1400 14.15736463  2727
CENTISPACE-1 GROUP 05 O*
1 69585U 26138D   26187.27317272 -.00000451  00000+0 -15006-3 0  9994
2 69585  55.1392 210.6385 0009181 324.8770  35.1598 14.15923108  2721
CENTISPACE-1 GROUP 05 O*
1 69586U 26138E   26187.27228134 -.00000429  00000+0 -13904-3 0  9993
2 69586  55.1383 210.6408 0008916 325.2946  34.7446 14.15989889  2728
CENTISPACE-1 GROUP 05 O*
1 69587U 26138F   26187.27314188 -.00000426  00000+0 -13789-3 0  9997
2 69587  55.1389 210.6468 0008797 329.7036  30.3429 14.15913030  2725
CENTISPACE-1 GROUP 05 O*
1 69588U 26138G   26187.27090211 -.00000466  00000+0 -15734-3 0  9992
2 69588  55.1388 210.6321 0008081 329.2795  30.7705 14.16077392  2720
SPACEMOBILE-008         
1 69589U 26139A   26187.16790571  .00000602  00000+0  50838-4 0  9993
2 69589  52.9938 176.3923 0004604  34.4337 325.6952 15.12792935  2855
SPACEMOBILE-009         
1 69590U 26139B   26187.16923104  .00000617  00000+0  51860-4 0  9997
2 69590  52.9928 176.3963 0004820  29.5652 330.5611 15.12686326  2858
SPACEMOBILE-010         
1 69591U 26139C   26187.17133663  .00000632  00000+0  52916-4 0  9992
2 69591  52.9932 176.4117 0004700  20.5529 339.5651 15.12517431  2861
KUIPER-00423            
1 69592U 26140A   26186.82892817  .00030735  00000+0  80289-3 0  9999
2 69592  51.8806 308.4153 0013523 234.1171 125.8561 15.38432581  4101
KUIPER-00428            
1 69593U 26140B   26186.85743122  .00033971  00000+0  93589-3 0  9999
2 69593  51.8821 308.6000 0007858   0.9126 359.1873 15.36797233  4109
KUIPER-00481            
1 69594U 26140C   26187.16668981  .00060457  00000+0  15982-2 0  9993
2 69594  51.8783 306.8614 0011243 243.1671 146.4789 15.37779714  3597
KUIPER-00490            
1 69595U 26140D   26186.84593856  .00037355  00000+0  99529-3 0  9997
2 69595  51.8786 308.5183 0006318 304.5071  55.5319 15.37796362  4109
KUIPER-00493            
1 69596U 26140E   26186.86103912  .00034250  00000+0  95180-3 0  9990
2 69596  51.8818 308.6225 0007587   6.2825 353.8255 15.36525024  4103
KUIPER-00496            
1 69597U 26140F   26186.80658279  .00024891  00000+0  74051-3 0  9990
2 69597  51.8798 309.0000 0010465  20.0068 340.1326 15.34532915  4090
KUIPER-00513            
1 69598U 26140G   26186.84387112  .00038702  00000+0  10240-2 0  9995
2 69598  51.8813 308.5133 0006918 303.6643  56.3683 15.37992267  4104
KUIPER-00516            
1 69599U 26140H   26186.84876113  .00033195  00000+0  89638-3 0  9999
2 69599  51.8799 308.5387 0006615 320.6842  39.3664 15.37438090  4102
KUIPER-00517            
1 69600U 26140J   26186.70281215  .00009810  00000+0  26224-3 0  9999
2 69600  51.8778 309.0629 0010412 255.4582 104.5251 15.38680982  4087
KUIPER-00520            
1 69601U 26140K   26186.84995543  .00032551  00000+0  87781-3 0  9994
2 69601  51.8828 308.5545 0006331 321.8990  38.1548 15.37491398  4105
KUIPER-00522            
1 69602U 26140L   26186.89341066  .00026981  00000+0  70541-3 0  9991
2 69602  51.8785 308.0942 0013455 230.4523 129.5276 15.38477689  4118
KUIPER-00528            
1 69603U 26140M   26186.85172961  .00031557  00000+0  85571-3 0  9998
2 69603  51.8803 308.5577 0005384 328.4161  31.6502 15.37340915  4101
KUIPER-00532            
1 69604U 26140N   26187.16668981  .00059245  00000+0  16305-2 0  9998
2 69604  51.8799 307.1066 0005498   3.0235 265.3929 15.36588913  4085
