OBJECT_NAME,OBJECT_ID,EPOCH,MEAN_MOTION,ECCENTRICITY,INCLINATION,RA_OF_ASC_NODE,ARG_OF_PERICENTER,MEAN_ANOMALY,EPHEMERIS_TYPE,CLASSIFICATION_TYPE,NORAD_CAT_ID,ELEMENT_SET_NO,REV_AT_EPOCH,BSTAR,MEAN_MOTION_DOT,MEAN_MOTION_DDOT
GUOWANG OBJECT D,2026-137D,2026-07-04T16:33:57.389184,13.89828409,.00111481,49.9953,185.6466,282.9923,76.9731,0,U,69575,999,246,-.26923089E-4,-.179E-5,0
GUOWANG OBJECT E,2026-137E,2026-07-06T04:46:54.772320,13.89825648,.00112457,50.0032,179.6541,290.6651,69.3041,0,U,69576,999,267,-.53167289E-4,-.212E-5,0
GUOWANG OBJECT F,2026-137F,2026-07-06T04:45:39.888576,13.89810038,.00108676,50.0023,179.6474,290.3788,69.5942,0,U,69577,999,267,-.49492009E-4,-.207E-5,0
GUOWANG OBJECT G,2026-137G,2026-07-06T04:44:21.668928,13.89794875,.00108505,49.9951,179.6239,290.2437,69.7294,0,U,69578,999,267,-.76319932E-4,-.24E-5,0
GUOWANG OBJECT H,2026-137H,2026-06-25T11:38:14.756064,13.92076941,.0010122,49.9967,222.2731,259.8752,100.1006,0,U,69579,999,118,.1427E-3,.37E-6,0
GUOWANG OBJECT J,2026-137J,2026-06-27T06:41:01.268160,13.91997107,.0011832,49.9961,215.0979,257.3150,102.6427,0,U,69580,999,143,.13174E-3,.22E-6,0
CZ-12 R/B,2026-137K,2026-07-06T04:49:31.778400,14.11692549,.0077464,49.9875,176.9324,178.9373,181.1712,0,U,69581,999,269,.57750679E-4,-.46E-6,0
CENTISPACE-1 GROUP 05 OBJECT A,2026-138A,2026-07-06T06:41:54.270240,14.15471536,.00107203,55.1388,210.6714,324.0460,35.9792,0,U,69582,999,272,-.86095318E-4,-.322E-5,0
CENTISPACE-1 GROUP 05 OBJECT B,2026-138B,2026-07-06T06:38:21.804000,14.15652334,.00096787,55.1385,210.6569,324.2147,35.8178,0,U,69583,999,272,-.11459227E-3,-.379E-5,0
CENTISPACE-1 GROUP 05 OBJECT C,2026-138C,2026-07-06T06:36:42.367104,14.15736463,.00096072,55.1391,210.6593,325.8956,34.1400,0,U,69584,999,272,-.11685174E-3,-.384E-5,0
CENTISPACE-1 GROUP 05 OBJECT D,2026-138D,2026-07-06T06:33:22.123008,14.15923108,.00091813,55.1392,210.6385,324.8770,35.1598,0,U,69585,999,272,-.15006412E-3,-.451E-5,0
CENTISPACE-1 GROUP 05 OBJECT E,2026-138E,2026-07-06T06:32:05.107776,14.15989889,.00089162,55.1383,210.6408,325.2946,34.7446,0,U,69586,999,272,-.13903917E-3,-.429E-5,0
CENTISPACE-1 GROUP 05 OBJECT F,2026-138F,2026-07-06T06:33:19.458432,14.15913030,.00087977,55.1389,210.6468,329.7036,30.3429,0,U,69587,999,272,-.13788905E-3,-.426E-5,0
CENTISPACE-1 GROUP 05 OBJECT G,2026-138G,2026-07-06T06:30:05.942304,14.16077392,.00080819,55.1388,210.6321,329.2795,30.7705,0,U,69588,999,272,-.15733937E-3,-.466E-5,0
SPACEMOBILE-008,2026-139A,2026-07-06T04:01:47.053344,15.12792935,.00046043,52.9938,176.3923,34.4337,325.6952,0,U,69589,999,285,.50838139E-4,.602E-5,0
SPACEMOBILE-009,2026-139B,2026-07-06T04:03:41.561856,15.12686326,.000482,52.9928,176.3963,29.5652,330.5611,0,U,69590,999,285,.5185962E-4,.617E-5,0
SPACEMOBILE-010,2026-139C,2026-07-06T04:06:43.484832,15.12517431,.00047002,52.9932,176.4117,20.5529,339.5651,0,U,69591,999,286,.52915518E-4,.632E-5,0
KUIPER-00423,2026-140A,2026-07-05T19:53:39.393888,15.38432581,.00135235,51.8806,308.4153,234.1171,125.8561,0,U,69592,999,410,.80289449E-3,.30735E-3,0
KUIPER-00428,2026-140B,2026-07-05T20:34:42.057408,15.36797233,.00078581,51.8821,308.6000,0.9126,359.1873,0,U,69593,999,410,.9358939E-3,.33971E-3,0
KUIPER-00481,2026-140C,2026-07-06T04:00:01.999584,15.37779714,.00112432,51.8783,306.8614,243.1671,146.4789,0,U,69594,999,359,.15982251E-2,.60457E-3,0
KUIPER-00490,2026-140D,2026-07-05T20:18:09.091584,15.37796362,.00063189,51.8786,308.5183,304.5071,55.5319,0,U,69595,999,410,.99528993E-3,.37355E-3,0
KUIPER-00493,2026-140E,2026-07-05T20:39:53.779968,15.36525024,.0007587,51.8818,308.6225,6.2825,353.8255,0,U,69596,999,410,.95179638E-3,.3425E-3,0
KUIPER-00496,2026-140F,2026-07-05T19:21:28.753056,15.34532915,.00104658,51.8798,309.0000,20.0068,340.1326,0,U,69597,999,409,.74050996E-3,.24891E-3,0
KUIPER-00513,2026-140G,2026-07-05T20:15:10.464768,15.37992267,.00069184,51.8813,308.5133,303.6643,56.3683,0,U,69598,999,410,.10239905E-2,.38702E-3,0
KUIPER-00516,2026-140H,2026-07-05T20:22:12.961632,15.37438090,.00066158,51.8799,308.5387,320.6842,39.3664,0,U,69599,999,410,.89637911E-3,.33195E-3,0
KUIPER-00517,2026-140J,2026-07-05T16:52:02.969760,15.38680982,.00104124,51.8778,309.0629,255.4582,104.5251,0,U,69600,999,408,.26223509E-3,.981E-4,0
KUIPER-00520,2026-140K,2026-07-05T20:23:56.149152,15.37491398,.00063312,51.8828,308.5545,321.8990,38.1548,0,U,69601,999,410,.87780548E-3,.32551E-3,0
KUIPER-00522,2026-140L,2026-07-05T21:26:30.681024,15.38477689,.00134552,51.8785,308.0942,230.4523,129.5276,0,U,69602,999,411,.70541072E-3,.26981E-3,0
KUIPER-00528,2026-140M,2026-07-05T20:26:29.438304,15.37340915,.00053844,51.8803,308.5577,328.4161,31.6502,0,U,69603,999,410,.85571371E-3,.31557E-3,0
KUIPER-00532,2026-140N,2026-07-06T04:00:01.999584,15.36588913,.00054987,51.8799,307.1066,3.0235,265.3929,0,U,69604,999,408,.16305037E-2,.59245E-3,0
